STARLINK-1255
1 45399U 20019AR  26092.91668981  .00112113  00000+0  15400-2 0  9999
2 45399  53.0403 345.7482 0001569 153.5149 111.9313 15.56481577  5855
